{"type": "FeatureCollection", "features": [ {"type": "Feature", "properties": {"norad_id": 30596, "name": "FENGYUN 1C DEB", "group": "fengyun-1c-debris", "lat": -29.381953183367212, "lon": 153.876552211993, "alt_km": 801.3897822124709, "timestamp": "2025-12-06T18:50:10.445879+00:00", "meta": {"OBJECT_NAME": "FENGYUN 1C DEB", "OBJECT_ID": "1999-025AMB", "EPOCH": "2025-12-05T23:40:45.276096", "MEAN_MOTION": 14.34326245, "ECCENTRICITY": 0.02476594, "INCLINATION": 98.4122, "RA_OF_ASC_NODE": 337.8783, "ARG_OF_PERICENTER": 309.3126, "MEAN_ANOMALY": 103.8977, "EPHEMERIS_TYPE": 0, "CLASSIFICATION_TYPE": "U", "NORAD_CAT_ID": 30596, "ELEMENT_SET_NO": 999, "REV_AT_EPOCH": 98464, "BSTAR": 0.00079378914, "MEAN_MOTION_DOT": 3.098e-05, "MEAN_MOTION_DDOT": 0}, "tle": {"line1": "1 30596U 99025AMB 25339.98663514  .00003098  00000+0  79379-3 0  9999", "line2": "2 30596  98.4122 337.8783 0247659 309.3126 103.8977 14.34326245984647"}}, "geometry": {"type": "Point", "coordinates": [153.876552211993, -29.381953183367212]}}, {"type": "Feature", "properties": {"norad_id": 30597, "name": "FENGYUN 1C DEB", "group": "fengyun-1c-debris", "lat": -62.88437463392662, "lon": -65.63914247037357, "alt_km": 611.1263907601797, "timestamp": "2025-12-06T18:50:10.445889+00:00", "meta": {"OBJECT_NAME": "FENGYUN 1C DEB", "OBJECT_ID": "1999-025AMC", "EPOCH": "2025-12-04T18:49:20.030304", "MEAN_MOTION": 14.91243446, "ECCENTRICITY": 0.00444907, "INCLINATION": 98.9429, "RA_OF_ASC_NODE": 274.1851, "ARG_OF_PERICENTER": 190.4495, "MEAN_ANOMALY": 169.5799, "EPHEMERIS_TYPE": 0, "CLASSIFICATION_TYPE": "U", "NORAD_CAT_ID": 30597, "ELEMENT_SET_NO": 999, "REV_AT_EPOCH": 98418, "BSTAR": 0.010841228, "MEAN_MOTION_DOT": 0.00111483, "MEAN_MOTION_DDOT": 0}, "tle": {"line1": "1 30597U 99025AMC 25338.78425961  .00111483  00000+0  10841-1 0  9994", "line2": "2 30597  98.9429 274.1851 0044490 190.4495 169.5799 14.91243446984182"}}, "geometry": {"type": "Point", "coordinates": [-65.63914247037357, -62.88437463392662]}}, {"type": "Feature", "properties": {"norad_id": 30599, "name": "FENGYUN 1C DEB", "group": "fengyun-1c-debris", "lat": 47.326809796804966, "lon": -177.98282471007695, "alt_km": 958.2850999034399, "timestamp": "2025-12-06T18:50:10.445899+00:00", "meta": {"OBJECT_NAME": "FENGYUN 1C DEB", "OBJECT_ID": "1999-025AME", "EPOCH": "2025-12-05T23:37:27.089184", "MEAN_MOTION": 14.19638441, "ECCENTRICITY": 0.0302881, "INCLINATION": 98.6028, "RA_OF_ASC_NODE": 351.787, "ARG_OF_PERICENTER": 4.3241, "MEAN_ANOMALY": 356.0446, "EPHEMERIS_TYPE": 0, "CLASSIFICATION_TYPE": "U", "NORAD_CAT_ID": 30599, "ELEMENT_SET_NO": 999, "REV_AT_EPOCH": 97071, "BSTAR": 0.001300616, "MEAN_MOTION_DOT": 4.306e-05, "MEAN_MOTION_DDOT": 0}, "tle": {"line1": "1 30599U 99025AME 25339.98434131  .00004306  00000+0  13006-2 0  9990", "line2": "2 30599  98.6028 351.7870 0302881   4.3241 356.0446 14.19638441970711"}}, "geometry": {"type": "Point", "coordinates": [-177.98282471007695, 47.326809796804966]}}, {"type": "Feature", "properties": {"norad_id": 30600, "name": "FENGYUN 1C DEB", "group": "fengyun-1c-debris", "lat": 47.11926669163251, "lon": 115.08169332224753, "alt_km": 1021.7447116768053, "timestamp": "2025-12-06T18:50:10.445909+00:00", "meta": {"OBJECT_NAME": "FENGYUN 1C DEB", "OBJECT_ID": "1999-025AMF", "EPOCH": "2025-11-30T15:24:54.916992", "MEAN_MOTION": 14.07030871, "ECCENTRICITY": 0.0330604, "INCLINATION": 98.3855, "RA_OF_ASC_NODE": 280.231, "ARG_OF_PERICENTER": 282.0902, "MEAN_ANOMALY": 74.3412, "EPHEMERIS_TYPE": 0, "CLASSIFICATION_TYPE": "U", "NORAD_CAT_ID": 30600, "ELEMENT_SET_NO": 999, "REV_AT_EPOCH": 94262, "BSTAR": 0.0058342, "MEAN_MOTION_DOT": 0.00016035, "MEAN_MOTION_DDOT": 0}, "tle": {"line1": "1 30600U 99025AMF 25334.64230228  .00016035  00000+0  58342-2 0  9996", "line2": "2 30600  98.3855 280.2310 0330604 282.0902  74.3412 14.07030871942629"}}, "geometry": {"type": "Point", "coordinates": [115.08169332224753, 47.11926669163251]}}, {"type": "Feature", "properties": {"norad_id": 30602, "name": "FENGYUN 1C DEB", "group": "fengyun-1c-debris", "lat": 13.342054833966177, "lon": 75.97934006694257, "alt_km": 594.1351861023641, "timestamp": "2025-12-06T18:50:10.445919+00:00", "meta": {"OBJECT_NAME": "FENGYUN 1C DEB", "OBJECT_ID": "1999-025AMH", "EPOCH": "2025-12-06T05:52:50.693088", "MEAN_MOTION": 14.89786526, "ECCENTRICITY": 0.00081999, "INCLINATION": 99.0337, "RA_OF_ASC_NODE": 253.2009, "ARG_OF_PERICENTER": 141.1985, "MEAN_ANOMALY": 11.573, "EPHEMERIS_TYPE": 0, "CLASSIFICATION_TYPE": "U", "NORAD_CAT_ID": 30602, "ELEMENT_SET_NO": 999, "REV_AT_EPOCH": 97708, "BSTAR": 0.014261155, "MEAN_MOTION_DOT": 0.00139561, "MEAN_MOTION_DDOT": 0}, "tle": {"line1": "1 30602U 99025AMH 25340.24503117  .00139561  00000+0  14261-1 0  9992", "line2": "2 30602  99.0337 253.2009 0008199 141.1985  11.5730 14.89786526977085"}}, "geometry": {"type": "Point", "coordinates": [75.97934006694257, 13.342054833966177]}}, {"type": "Feature", "properties": {"norad_id": 30603, "name": "FENGYUN 1C DEB", "group": "fengyun-1c-debris", "lat": -45.821003414853095, "lon": 175.56401527584848, "alt_km": 822.3559045068769, "timestamp": "2025-12-06T18:50:10.445930+00:00", "meta": {"OBJECT_NAME": "FENGYUN 1C DEB", "OBJECT_ID": "1999-025AMJ", "EPOCH": "2025-12-06T00:32:06.688032", "MEAN_MOTION": 13.84088975, "ECCENTRICITY": 0.01831111, "INCLINATION": 98.4092, "RA_OF_ASC_NODE": 3.6367, "ARG_OF_PERICENTER": 223.6997, "MEAN_ANOMALY": 165.05, "EPHEMERIS_TYPE": 0, "CLASSIFICATION_TYPE": "U", "NORAD_CAT_ID": 30603, "ELEMENT_SET_NO": 999, "REV_AT_EPOCH": 94783, "BSTAR": 0.0021396426, "MEAN_MOTION_DOT": 2.674e-05, "MEAN_MOTION_DDOT": 0}, "tle": {"line1": "1 30603U 99025AMJ 25340.02229963  .00002674  00000+0  21396-2 0  9995", "line2": "2 30603  98.4092   3.6367 0183111 223.6997 165.0500 13.84088975947835"}}, "geometry": {"type": "Point", "coordinates": [175.56401527584848, -45.821003414853095]}}, {"type": "Feature", "properties": {"norad_id": 30604, "name": "FENGYUN 1C DEB", "group": "fengyun-1c-debris", "lat": 50.536565299812615, "lon": -153.77251849144233, "alt_km": 843.0291707488013, "timestamp": "2025-12-06T18:50:10.445940+00:00", "meta": {"OBJECT_NAME": "FENGYUN 1C DEB", "OBJECT_ID": "1999-025AMK", "EPOCH": "2025-12-06T08:11:38.779584", "MEAN_MOTION": 14.23594328, "ECCENTRICITY": 0.02100855, "INCLINATION": 98.4031, "RA_OF_ASC_NODE": 15.46, "ARG_OF_PERICENTER": 25.5713, "MEAN_ANOMALY": 349.506, "EPHEMERIS_TYPE": 0, "CLASSIFICATION_TYPE": "U", "NORAD_CAT_ID": 30604, "ELEMENT_SET_NO": 999, "REV_AT_EPOCH": 97748, "BSTAR": 0.00054207134, "MEAN_MOTION_DOT": 1.506e-05, "MEAN_MOTION_DDOT": 0}, "tle": {"line1": "1 30604U 99025AMK 25340.34142106  .00001506  00000+0  54207-3 0  9995", "line2": "2 30604  98.4031  15.4600 0210085  25.5713 349.5060 14.23594328977488"}}, "geometry": {"type": "Point", "coordinates": [-153.77251849144233, 50.536565299812615]}}, {"type": "Feature", "properties": {"norad_id": 30606, "name": "FENGYUN 1C DEB", "group": "fengyun-1c-debris", "lat": 70.75555477235558, "lon": -164.83805563112165, "alt_km": 591.3589513129227, "timestamp": "2025-12-06T18:50:10.445950+00:00", "meta": {"OBJECT_NAME": "FENGYUN 1C DEB", "OBJECT_ID": "1999-025AMM", "EPOCH": "2025-12-06T00:31:33.429216", "MEAN_MOTION": 14.57565989, "ECCENTRICITY": 0.02140072, "INCLINATION": 98.0956, "RA_OF_ASC_NODE": 350.3578, "ARG_OF_PERICENTER": 158.038, "MEAN_ANOMALY": 270.3515, "EPHEMERIS_TYPE": 0, "CLASSIFICATION_TYPE": "U", "NORAD_CAT_ID": 30606, "ELEMENT_SET_NO": 999, "REV_AT_EPOCH": 99144, "BSTAR": 0.0009580052, "MEAN_MOTION_DOT": 5.928e-05, "MEAN_MOTION_DDOT": 0}, "tle": {"line1": "1 30606U 99025AMM 25340.02191469  .00005928  00000+0  95801-3 0  9995", "line2": "2 30606  98.0956 350.3578 0214007 158.0380 270.3515 14.57565989991443"}}, "geometry": {"type": "Point", "coordinates": [-164.83805563112165, 70.75555477235558]}}, {"type": "Feature", "properties": {"norad_id": 30608, "name": "FENGYUN 1C DEB", "group": "fengyun-1c-debris", "lat": 76.54882913766505, "lon": -96.67067581323641, "alt_km": 790.9328454302886, "timestamp": "2025-12-06T18:50:10.445960+00:00", "meta": {"OBJECT_NAME": "FENGYUN 1C DEB", "OBJECT_ID": "1999-025AMP", "EPOCH": "2025-12-06T03:22:27.192864", "MEAN_MOTION": 14.28418929, "ECCENTRICITY": 0.00157603, "INCLINATION": 98.7112, "RA_OF_ASC_NODE": 42.8178, "ARG_OF_PERICENTER": 198.2286, "MEAN_ANOMALY": 191.1557, "EPHEMERIS_TYPE": 0, "CLASSIFICATION_TYPE": "U", "NORAD_CAT_ID": 30608, "ELEMENT_SET_NO": 999, "REV_AT_EPOCH": 97345, "BSTAR": 0.0019026864, "MEAN_MOTION_DOT": 4.723e-05, "MEAN_MOTION_DDOT": 0}, "tle": {"line1": "1 30608U 99025AMP 25340.14059251  .00004723  00000+0  19027-2 0  9999", "line2": "2 30608  98.7112  42.8178 0015760 198.2286 191.1557 14.28418929973457"}}, "geometry": {"type": "Point", "coordinates": [-96.67067581323641, 76.54882913766505]}}, {"type": "Feature", "properties": {"norad_id": 30609, "name": "FENGYUN 1C DEB", "group": "fengyun-1c-debris", "lat": -1.5636674417629803, "lon": -102.09370537682845, "alt_km": 829.8867875652977, "timestamp": "2025-12-06T18:50:10.445970+00:00", "meta": {"OBJECT_NAME": "FENGYUN 1C DEB", "OBJECT_ID": "1999-025AMQ", "EPOCH": "2025-12-06T05:13:47.916480", "MEAN_MOTION": 14.11128361, "ECCENTRICITY": 0.01189363, "INCLINATION": 98.5673, "RA_OF_ASC_NODE": 257.1295, "ARG_OF_PERICENTER": 71.3066, "MEAN_ANOMALY": 290.0973, "EPHEMERIS_TYPE": 0, "CLASSIFICATION_TYPE": "U", "NORAD_CAT_ID": 30609, "ELEMENT_SET_NO": 999, "REV_AT_EPOCH": 95636, "BSTAR": 0.0038123484, "MEAN_MOTION_DOT": 7.303e-05, "MEAN_MOTION_DDOT": 0}, "tle": {"line1": "1 30609U 99025AMQ 25340.21791570  .00007303  00000+0  38123-2 0  9990", "line2": "2 30609  98.5673 257.1295 0118936  71.3066 290.0973 14.11128361956367"}}, "geometry": {"type": "Point", "coordinates": [-102.09370537682845, -1.5636674417629803]}}]}